FLOCK 3P-77             
1 42025U 17008CF  17345.87647325  .00001191  00000-0  52609-4 0  9999
2 42025  97.4779  46.7826 0006899 299.8206  60.2344 15.23697572 45420
